[{"OBJECT_NAME":"HXMT (HUIYAN)","OBJECT_ID":"2017-034A","EPOCH":"2026-03-04T04:22:53.300640","MEAN_MOTION":15.17375601,"ECCENTRICITY":0.0032357,"INCLINATION":43.0149,"RA_OF_ASC_NODE":47.2877,"ARG_OF_PERICENTER":202.2175,"MEAN_ANOMALY":157.7273,"EPHEMERIS_TYPE":0,"CLASSIFICATION_TYPE":"U","NORAD_CAT_ID":42758,"ELEMENT_SET_NO":999,"REV_AT_EPOCH":48170,"BSTAR":0.00038436,"MEAN_MOTION_DOT":7.688e-5,"MEAN_MOTION_DDOT":0},{"OBJECT_NAME":"SAOCOM 1A","OBJECT_ID":"2018-076A","EPOCH":"2026-03-04T03:46:16.501152","MEAN_MOTION":14.82163622,"ECCENTRICITY":0.0001323,"INCLINATION":97.8882,"RA_OF_ASC_NODE":251.4077,"ARG_OF_PERICENTER":80.5734,"MEAN_ANOMALY":279.5629,"EPHEMERIS_TYPE":0,"CLASSIFICATION_TYPE":"U","NORAD_CAT_ID":43641,"ELEMENT_SET_NO":999,"REV_AT_EPOCH":40054,"BSTAR":0.00013205,"MEAN_MOTION_DOT":9.99e-6,"MEAN_MOTION_DDOT":0},{"OBJECT_NAME":"H-2A R/B","OBJECT_ID":"2018-084L","EPOCH":"2026-03-04T03:35:02.029920","MEAN_MOTION":15.41065297,"ECCENTRICITY":0.0025781,"INCLINATION":98.8734,"RA_OF_ASC_NODE":279.3544,"ARG_OF_PERICENTER":44.1315,"MEAN_ANOMALY":316.1978,"EPHEMERIS_TYPE":0,"CLASSIFICATION_TYPE":"U","NORAD_CAT_ID":43682,"ELEMENT_SET_NO":999,"REV_AT_EPOCH":40492,"BSTAR":0.00069806,"MEAN_MOTION_DOT":0.00029154,"MEAN_MOTION_DDOT":0},{"OBJECT_NAME":"SAOCOM 1B","OBJECT_ID":"2020-059A","EPOCH":"2026-03-04T04:31:14.176128","MEAN_MOTION":14.8216384,"ECCENTRICITY":0.000144,"INCLINATION":97.8881,"RA_OF_ASC_NODE":250.5364,"ARG_OF_PERICENTER":80.6522,"MEAN_ANOMALY":279.4854,"EPHEMERIS_TYPE":0,"CLASSIFICATION_TYPE":"U","NORAD_CAT_ID":46265,"ELEMENT_SET_NO":999,"REV_AT_EPOCH":29793,"BSTAR":1.9708e-5,"MEAN_MOTION_DOT":1.05e-6,"MEAN_MOTION_DDOT":0},{"OBJECT_NAME":"CSS (TIANHE)","OBJECT_ID":"2021-035A","EPOCH":"2026-03-04T03:32:44.323872","MEAN_MOTION":15.60380094,"ECCENTRICITY":0.0006828,"INCLINATION":41.4658,"RA_OF_ASC_NODE":241.875,"ARG_OF_PERICENTER":240.6834,"MEAN_ANOMALY":119.3323,"EPHEMERIS_TYPE":0,"CLASSIFICATION_TYPE":"U","NORAD_CAT_ID":48274,"ELEMENT_SET_NO":999,"REV_AT_EPOCH":27674,"BSTAR":0.00035996,"MEAN_MOTION_DOT":0.00030185,"MEAN_MOTION_DDOT":0},{"OBJECT_NAME":"COSMOS 2550","OBJECT_ID":"2021-056A","EPOCH":"2026-03-04T04:05:14.436672","MEAN_MOTION":15.33832863,"ECCENTRICITY":0.0008419,"INCLINATION":67.1447,"RA_OF_ASC_NODE":57.6266,"ARG_OF_PERICENTER":269.1758,"MEAN_ANOMALY":90.8432,"EPHEMERIS_TYPE":0,"CLASSIFICATION_TYPE":"U","NORAD_CAT_ID":48865,"ELEMENT_SET_NO":999,"REV_AT_EPOCH":26261,"BSTAR":-1.3526e-7,"MEAN_MOTION_DOT":-1.96e-6,"MEAN_MOTION_DDOT":0},{"OBJECT_NAME":"CZ-2C R/B","OBJECT_ID":"2022-058K","EPOCH":"2026-03-04T04:12:27.832032","MEAN_MOTION":15.53767749,"ECCENTRICITY":0.0042178,"INCLINATION":50.1907,"RA_OF_ASC_NODE":346.6454,"ARG_OF_PERICENTER":177.4326,"MEAN_ANOMALY":182.6868,"EPHEMERIS_TYPE":0,"CLASSIFICATION_TYPE":"U","NORAD_CAT_ID":52794,"ELEMENT_SET_NO":999,"REV_AT_EPOCH":20927,"BSTAR":0.00067772,"MEAN_MOTION_DOT":0.00045844,"MEAN_MOTION_DDOT":0},{"OBJECT_NAME":"CZ-2C R/B","OBJECT_ID":"2022-132E","EPOCH":"2026-03-03T22:11:34.742688","MEAN_MOTION":15.61267902,"ECCENTRICITY":0.0020745,"INCLINATION":97.2956,"RA_OF_ASC_NODE":66.0687,"ARG_OF_PERICENTER":109.5338,"MEAN_ANOMALY":250.8162,"EPHEMERIS_TYPE":0,"CLASSIFICATION_TYPE":"U","NORAD_CAT_ID":54039,"ELEMENT_SET_NO":999,"REV_AT_EPOCH":18947,"BSTAR":0.0006603,"MEAN_MOTION_DOT":0.00056745,"MEAN_MOTION_DDOT":0},{"OBJECT_NAME":"GSLV R/B","OBJECT_ID":"2022-138AN","EPOCH":"2026-03-03T20:05:54.169728","MEAN_MOTION":14.96724659,"ECCENTRICITY":0.0022134,"INCLINATION":87.3886,"RA_OF_ASC_NODE":168.3206,"ARG_OF_PERICENTER":166.9922,"MEAN_ANOMALY":193.1886,"EPHEMERIS_TYPE":0,"CLASSIFICATION_TYPE":"U","NORAD_CAT_ID":54149,"ELEMENT_SET_NO":999,"REV_AT_EPOCH":18305,"BSTAR":0.00046473,"MEAN_MOTION_DOT":5.361e-5,"MEAN_MOTION_DDOT":0},{"OBJECT_NAME":"XRISM","OBJECT_ID":"2023-137A","EPOCH":"2026-03-04T00:39:19.889856","MEAN_MOTION":15.11422447,"ECCENTRICITY":0.0008161,"INCLINATION":31.0031,"RA_OF_ASC_NODE":320.2862,"ARG_OF_PERICENTER":341.2942,"MEAN_ANOMALY":18.7396,"EPHEMERIS_TYPE":0,"CLASSIFICATION_TYPE":"U","NORAD_CAT_ID":57800,"ELEMENT_SET_NO":999,"REV_AT_EPOCH":13693,"BSTAR":0.00047679,"MEAN_MOTION_DOT":8.362e-5,"MEAN_MOTION_DDOT":0},{"OBJECT_NAME":"ACS3","OBJECT_ID":"2024-077B","EPOCH":"2026-03-03T19:25:00.630912","MEAN_MOTION":13.89316216,"ECCENTRICITY":0.0055358,"INCLINATION":97.2109,"RA_OF_ASC_NODE":5.2431,"ARG_OF_PERICENTER":92.4851,"MEAN_ANOMALY":268.2652,"EPHEMERIS_TYPE":0,"CLASSIFICATION_TYPE":"U","NORAD_CAT_ID":59588,"ELEMENT_SET_NO":999,"REV_AT_EPOCH":9338,"BSTAR":0.023917,"MEAN_MOTION_DOT":0.00029576,"MEAN_MOTION_DDOT":0},{"OBJECT_NAME":"SZ-21 MODULE","OBJECT_ID":"2025-246C","EPOCH":"2026-03-03T18:27:35.995968","MEAN_MOTION":15.6801182,"ECCENTRICITY":0.00014472,"INCLINATION":41.473,"RA_OF_ASC_NODE":239.793,"ARG_OF_PERICENTER":287.9355,"MEAN_ANOMALY":72.1329,"EPHEMERIS_TYPE":0,"CLASSIFICATION_TYPE":"U","NORAD_CAT_ID":66515,"ELEMENT_SET_NO":999,"REV_AT_EPOCH":1714,"BSTAR":0.00039281321,"MEAN_MOTION_DOT":0.00044751,"MEAN_MOTION_DDOT":0}]
