HXMT (HUIYAN)           
1 42758U 17034A   26063.18256135  .00007688  00000+0  38436-3 0  9994
2 42758  43.0149  47.2877 0032357 202.2175 157.7273 15.17375601481701
SAOCOM 1A               
1 43641U 18076A   26063.15713543  .00000999  00000+0  13205-3 0  9996
2 43641  97.8882 251.4077 0001323  80.5734 279.5629 14.82163622400542
H-2A R/B                
1 43682U 18084L   26063.14932905  .00029154  00000+0  69806-3 0  9996
2 43682  98.8734 279.3544 0025781  44.1315 316.1978 15.41065297404923
SAOCOM 1B               
1 46265U 20059A   26063.18835852  .00000105  00000+0  19708-4 0  9990
2 46265  97.8881 250.5364 0001440  80.6522 279.4854 14.82163840297939
CSS (TIANHE)            
1 48274U 21035A   26063.14773523  .00030185  00000+0  35996-3 0  9996
2 48274  41.4658 241.8750 0006828 240.6834 119.3323 15.60380094276747
COSMOS 2550             
1 48865U 21056A   26063.17030598 -.00000196  00000+0 -13526-6 0  9995
2 48865  67.1447  57.6266 0008419 269.1758  90.8432 15.33832863262619
CZ-2C R/B               
1 52794U 22058K   26063.17532213  .00045844  00000+0  67772-3 0  9991
2 52794  50.1907 346.6454 0042178 177.4326 182.6868 15.53767749209278
CZ-2C R/B               
1 54039U 22132E   26062.92470767  .00056745  00000+0  66030-3 0  9993
2 54039  97.2956  66.0687 0020745 109.5338 250.8162 15.61267902189473
GSLV R/B                
1 54149U 22138AN  26062.83743252  .00005361  00000+0  46473-3 0  9990
2 54149  87.3886 168.3206 0022134 166.9922 193.1886 14.96724659183054
XRISM                   
1 57800U 23137A   26063.02731354  .00008362  00000+0  47679-3 0  9992
2 57800  31.0031 320.2862 0008161 341.2942  18.7396 15.11422447136931
ACS3                    
1 59588U 24077B   26062.80903508  .00029576  00000+0  23917-1 0  9995
2 59588  97.2109   5.2431 0055358  92.4851 268.2652 13.89316216 93389
SZ-21 MODULE            
1 66515U 25246C   26062.76916662  .00044751  00000+0  39281-3 0  9997
2 66515  41.4730 239.7930 0001447 287.9355  72.1329 15.68011820 17141
